ESTCUBE 1               
1 39161U 13021C   21124.44996942  .00000198  00000-0  38960-4 0  9992
2 39161  97.9398 206.6513 0008335 297.4790  62.5569 14.72465604429273
FENGYUN 3C              
1 39260U 13052A   21124.46236525  .00000000  00000-0  20872-4 0  9997
2 39260  98.5032 167.1810 0011536  19.1683 340.9928 14.15866381394045
CASSIOPE                
1 39265U 13055A   21124.56319842  .00004945  00000-0  13546-3 0  9991
2 39265  80.9668 338.1586 0650912  82.6545 284.8091 14.31989452393712
ZACUBE-1 (TSHEPISOSAT)  
1 39417U 13066B   21124.88646834  .00000303  00000-0  44240-4 0  9991
2 39417  97.5910 111.4763 0057326 304.9490  54.6347 14.81494164402627
CINEMA-3 (KHUSAT-2)     
1 39426U 13066L   21124.62010230  .00000165  00000-0  33226-4 0  9996
2 39426  97.7518  78.7385 0105582 105.4475 255.8423 14.69664375399212
TRITON-1                
1 39427U 13066M   21124.49575782  .00000260  00000-0  48877-4 0  9994
2 39427  97.7715  74.4563 0114410 131.0303 230.0862 14.68210876398963
DELFI-N3XT              
1 39428U 13066N   21124.86398524  .00000400  00000-0  70541-4 0  9992
2 39428  97.7768  73.2634 0120566 142.5988 218.3687 14.67965510398575
GOMX-1                  
1 39430U 13066Q   21124.45254122  .00000249  00000-0  54375-4 0  9993
2 39430  97.8133  50.0502 0149070 253.4752 105.0012 14.59594363396627
BRITE-PL1 (LEM)         
1 39431U 13066R   21124.41136352  .00000061  00000-0  22866-4 0  9996
2 39431  97.7575   8.1891 0203305  55.1615 306.8515 14.47135108393204
ICUBE-1                 
1 39432U 13066S   21124.46368790  .00000501  00000-0  55786-4 0  9991
2 39432  97.4777 144.8125 0031601 186.8133 173.2661 14.90848418403752
HUMSAT-D                
1 39433U 13066T   21124.34562590  .00000773  00000-0  79238-4 0  9992
2 39433  97.4736 151.5241 0030824 166.5941 193.6105 14.92848323404162
VELOX-PII               
1 39438U 13066Y   21124.90968079  .00000267  00000-0  42321-4 0  9992
2 39438  97.6396 102.0623 0070037 348.4398  11.5202 14.78203182400640
FIRST-MOVE              
1 39439U 13066Z   21124.88423358  .00000635  00000-0  82755-4 0  9990
2 39439  97.5967 112.8318 0063349 302.9679  56.5454 14.82558957401499
CUBEBUG-2 (LO-74)       
1 39440U 13066AA  21124.86897836  .00000321  00000-0  51119-4 0  9998
2 39440  97.6728  96.3731 0080433  18.0235 342.3798 14.76222015399992
NEE-02 KRYSAOR          
1 39441U 13066AB  21124.89959258  .00000235  00000-0  40224-4 0  9998
2 39441  97.6824  93.7617 0082281  28.6251 331.9440 14.75167046399799
FUNCUBE-1 (AO-73)       
1 39444U 13066AE  21124.89720934  .00000363  00000-0  50572-4 0  9997
2 39444  97.5819 113.8424 0056220 295.2928  64.2468 14.82396662400988
HINCUBE                 
1 39445U 13066AF  21124.90020568  .00000356  00000-0  49919-4 0  9991
2 39445  97.5834 113.6974 0056274 297.1046  62.4434 14.82227355400935
UWE-3                   
1 39446U 13066AG  21124.91624411  .00000321  00000-0  48882-4 0  9990
2 39446  97.6341 103.3951 0069260 342.5832  17.3005 14.78760725400074
AIST-1 (RS-41)          
1 39492U 13078C   21124.50829401  .00000226  00000-0  21821-4 0  9993
2 39492  82.4175 267.7199 0020723  25.2318 334.9896 14.88021744398968
SPROUT                  
1 39770U 14029E   21124.57701472  .00000818  00000-0  94398-4 0  9999
2 39770  97.9109 235.9029 0008922   1.9701 358.1533 14.88356148376813
UNISAT-6                
1 40012U 14033C   21124.72456216  .00000235  00000-0  41915-4 0  9995
2 40012  97.6801 329.4364 0059171  42.8718 317.7082 14.74293805369755
BUGSAT-1 (TITA)         
1 40014U 14033E   21124.93921917  .00000191  00000-0  22759-4 0  9991
2 40014  98.1091 102.9374 0030531 310.6352  49.2214 14.95716429375068
DUCHIFAT-1              
1 40021U 14033M   21124.72136149  .00000624  00000-0  68438-4 0  9996
2 40021  97.9699  64.4576 0011757 313.9537  46.0710 14.91298278373767
NANOSATC-BR1            
1 40024U 14033Q   21124.52634157  .00000363  00000-0  43146-4 0  9998
2 40024  97.9494  59.4907 0011203 320.8968  39.1439 14.90402957373059
QB50P1                  
1 40025U 14033R   21124.61717283  .00000435  00000-0  51753-4 0  9994
2 40025  97.9316  55.1929 0011647 329.2416  30.8117 14.89411645372897
DTUSAT-2                
1 40030U 14033W   21124.53943780  .00000372  00000-0  45585-4 0  9990
2 40030  97.9153  51.7981 0011053 326.0036  34.0471 14.88965428372785
QB50P2                  
1 40032U 14033Y   21124.43416765  .00000322  00000-0  40268-4 0  9997
2 40032  97.9159  51.6988 0010981 327.3621  32.6916 14.88921627372749
POLYITAN-1              
1 40042U 14033AJ  21124.86481316  .00000426  00000-0  51086-4 0  9994
2 40042  97.9410  56.2101 0013650 318.4369  41.5809 14.89214729372822
TIGRISAT                
1 40043U 14033AK  21124.48363837  .00000165  00000-0  31396-4 0  9992
2 40043  97.6773 330.6001 0060823  41.6130 318.9685 14.74519735369351
AISAT                   
1 40054U 14034B   21124.88969647  .00000536  00000-0  81253-4 0  9999
2 40054  98.3171 276.5364 0012929 177.2401 182.8882 14.78387486369092
CANX-4                  
1 40055U 14034C   21124.86947691  .00000144  00000-0  29395-4 0  9997
2 40055  98.2992 265.0350 0013491 214.2927 145.7411 14.75041342368484
CANX-5                  
1 40056U 14034D   21124.87404680  .00000139  00000-0  28758-4 0  9991
2 40056  98.2992 265.0264 0013509 214.5570 145.4761 14.75032515359292
VELOX-I                 
1 40057U 14034E   21124.53393152  .00000463  00000-0  71657-4 0  9992
2 40057  98.3226 277.1971 0010597 191.1356 168.9622 14.78146519369053
METEOR-M 2              
1 40069U 14037A   21124.41738499 -.00000037  00000-0  22601-5 0  9996
2 40069  98.4649 155.1743 0006958  73.8020 286.3929 14.20683768353785
DX1                     
1 40071U 14037C   21124.55025073  .00000157  00000-0  27525-4 0  9992
2 40071  98.4562 326.7856 0008269 180.2504 179.8716 14.81486331368791
UKUBE-1                 
1 40074U 14037F   21124.50080843  .00000352  00000-0  48905-4 0  9998
2 40074  98.4347 337.7511 0004482 151.6914 208.4549 14.84527017369384
FIREBIRD 3              
1 40377U 15003B   21124.90638300  .00001885  00000-0  72379-4 0  9993
2 40377  99.0924 257.0459 0117466 319.2001  40.0478 15.22144061346168
FIREBIRD 4              
1 40378U 15003C   21124.88420717  .00001862  00000-0  71440-4 0  9995
2 40378  99.0927 257.1527 0117550 319.0864  40.1589 15.22193865346168
GRIFEX                  
1 40379U 15003D   21124.89700442  .00001406  00000-0  60607-4 0  9990
2 40379  99.0888 246.8619 0128534 350.7534   9.1329 15.17892522345573
CP10 (EXOCUBE)          
1 40380U 15003E   21124.89377101  .00001273  00000-0  58091-4 0  9990
2 40380  99.0902 241.4638 0134499   9.1736 351.1902 15.15602510345212
DEORBITSAIL             
1 40719U 15032E   21124.58466627  .00000457  00000-0  71412-4 0  9991
2 40719  97.8334  10.6768 0014718 248.6162 111.3478 14.77329916313501
NUDT-PHONESAT           
1 40900U 15049B   21124.97320791  .00003603  00000-0  14217-3 0  9990
2 40900  97.4222 139.3801 0010189 296.6533 120.6908 15.26154068312199
XW-2A                   
1 40903U 15049E   21124.91765049  .00004078  00000-0  88103-4 0  9999
2 40903  97.2397 179.5302 0012760 165.7212 299.0946 15.45017386316078
XW-2C                   
1 40906U 15049H   21124.94546492  .00000900  00000-0  49346-4 0  9990
2 40906  97.4867 127.8460 0014181 345.4859  70.9952 15.16667230310972
XW-2D                   
1 40907U 15049J   21124.94965524  .00000990  00000-0  53471-4 0  9995
2 40907  97.4858 127.6300 0013417 342.3279  78.6822 15.16978127311003
LILACSAT-2              
1 40908U 15049K   21124.93349483  .00000673  00000-0  40196-4 0  9993
2 40908  97.5046 125.5210 0015603 356.6044  61.1781 15.14397115310648
XW-2E                   
1 40909U 15049L   21124.97259940  .00001664  00000-0  81726-4 0  9991
2 40909  97.4679 131.6075 0012118 328.6440  85.1368 15.19412207311333
XW-2F                   
1 40910U 15049M   21124.96182065  .00001571  00000-0  78420-4 0  9999
2 40910  97.4730 130.6718 0013361 327.7769  86.7045 15.18914036311123
XW-2B                   
1 40911U 15049N   21124.94951131  .00000992  00000-0  53682-4 0  9995
2 40911  97.4857 128.3167 0013375 343.5839  74.3827 15.16895790310892
KAITUO 1B               
1 40912U 15049P   21124.96580593  .00001787  00000-0  82596-4 0  9997
2 40912  97.4471 135.0370 0012659 297.9848 117.5174 15.21434938311583
TIANWANG 1A (TW-1A)     
1 40928U 15051D   21124.89555589  .00005500  00000-0  11646-3 0  9990
2 40928  97.0806 150.8511 0011576  92.2550 345.2017 15.45442925314965
LAPAN-A2                
1 40931U 15052B   21124.37236761  .00000696  00000-0  78670-5 0  9999
2 40931   5.9974 206.8138 0012615 136.5778 223.5607 14.76673668302771
LQSAT                   
1 40958U 15057A   21124.46307249  .00000055  00000-0  15996-4 0  9993
2 40958  97.8062 182.5736 0017593 193.3867 166.6879 14.73171324299774
ATHENOXAT 1             
1 41168U 15077C   21124.62820237  .00002717  00000-0  10286-3 0  9997
2 41168  14.9863 223.1620 0011747 285.4563 111.7151 15.15560409298127
GALASSIA                
1 41170U 15077E   21124.61166072  .00002287  00000-0  80304-4 0  9990
2 41170  14.9878 214.1215 0012219 311.5793  48.3481 15.15785540298055
VELOX-II                
1 41171U 15077F   21124.05518433  .00002031  00000-0  75538-4 0  9991
2 41171  14.9910 274.1176 0008469 177.6734 182.3626 15.12465455297543
CHUBUSAT-2              
1 41338U 16012B   21124.62994759  .00000413  00000-0  25266-4 0  9993
2 41338  31.0025 104.5640 0013590  59.4050 300.7925 15.00508174286017
CHUBUSAT-3              
1 41339U 16012C   21124.32471275  .00000382  00000-0  22767-4 0  9992
2 41339  31.0109 103.7791 0013339  63.2448 296.9563 15.00657069285969
HORYU-4                 
1 41340U 16012D   21124.22283598  .00000689  00000-0  44917-4 0  9993
2 41340  31.0049  88.5404 0013715  93.9821 266.2383 15.01854754286139
